{"fetched_at":"2026-07-15T06:35:39.467Z","source":"https://celestrak.org/NORAD/elements/gp.php?GROUP=qianfan&FORMAT=JSON","constellation":"qianfan","records":[{"OBJECT_NAME":"QIANFAN-225","OBJECT_ID":"2026-155G","EPOCH":"2026-07-14T15:51:54.180864","CLASSIFICATION_TYPE":"U","MEAN_MOTION":14.22457897,"ECCENTRICITY":0.00267219,"INCLINATION":89.006,"RA_OF_ASC_NODE":61.0064,"ARG_OF_PERICENTER":229.1561,"MEAN_ANOMALY":130.7315,"EPHEMERIS_TYPE":0,"NORAD_CAT_ID":69854,"ELEMENT_SET_NO":999,"REV_AT_EPOCH":130,"BSTAR":-0.93627067,"MEAN_MOTION_DOT":-0.01940958,"MEAN_MOTION_DDOT":0},{"OBJECT_NAME":"QIANFAN-226","OBJECT_ID":"2026-155H","EPOCH":"2026-07-14T15:51:13.032864","CLASSIFICATION_TYPE":"U","MEAN_MOTION":14.22636125,"ECCENTRICITY":0.00271576,"INCLINATION":89.0063,"RA_OF_ASC_NODE":61.0075,"ARG_OF_PERICENTER":227.2474,"MEAN_ANOMALY":132.6432,"EPHEMERIS_TYPE":0,"NORAD_CAT_ID":69855,"ELEMENT_SET_NO":999,"REV_AT_EPOCH":130,"BSTAR":-0.90615029,"MEAN_MOTION_DOT":-0.01888899,"MEAN_MOTION_DDOT":0},{"OBJECT_NAME":"QIANFAN-227","OBJECT_ID":"2026-155J","EPOCH":"2026-07-14T15:50:29.482080","CLASSIFICATION_TYPE":"U","MEAN_MOTION":14.21733202,"ECCENTRICITY":0.00292829,"INCLINATION":89.0049,"RA_OF_ASC_NODE":61.006,"ARG_OF_PERICENTER":227.9973,"MEAN_ANOMALY":131.8725,"EPHEMERIS_TYPE":0,"NORAD_CAT_ID":69856,"ELEMENT_SET_NO":999,"REV_AT_EPOCH":130,"BSTAR":-0.81607637,"MEAN_MOTION_DOT":-0.01668555,"MEAN_MOTION_DDOT":0},{"OBJECT_NAME":"QIANFAN-228","OBJECT_ID":"2026-155K","EPOCH":"2026-07-14T17:34:08.739840","CLASSIFICATION_TYPE":"U","MEAN_MOTION":14.26683603,"ECCENTRICITY":0.00303467,"INCLINATION":89.007,"RA_OF_ASC_NODE":60.9992,"ARG_OF_PERICENTER":225.1859,"MEAN_ANOMALY":134.6868,"EPHEMERIS_TYPE":0,"NORAD_CAT_ID":69857,"ELEMENT_SET_NO":999,"REV_AT_EPOCH":131,"BSTAR":0.000023551472,"MEAN_MOTION_DOT":7.2e-7,"MEAN_MOTION_DDOT":0},{"OBJECT_NAME":"QIANFAN-229","OBJECT_ID":"2026-155L","EPOCH":"2026-07-14T14:12:04.962240","CLASSIFICATION_TYPE":"U","MEAN_MOTION":14.26734062,"ECCENTRICITY":0.0030269,"INCLINATION":89.0067,"RA_OF_ASC_NODE":61.0152,"ARG_OF_PERICENTER":225.7567,"MEAN_ANOMALY":134.1142,"EPHEMERIS_TYPE":0,"NORAD_CAT_ID":69858,"ELEMENT_SET_NO":999,"REV_AT_EPOCH":129,"BSTAR":0.000099869,"MEAN_MOTION_DOT":0.00000257,"MEAN_MOTION_DDOT":0},{"OBJECT_NAME":"QIANFAN-230","OBJECT_ID":"2026-155M","EPOCH":"2026-07-14T15:58:30.173664","CLASSIFICATION_TYPE":"U","MEAN_MOTION":14.18156605,"ECCENTRICITY":0.00343939,"INCLINATION":89.0057,"RA_OF_ASC_NODE":61.0078,"ARG_OF_PERICENTER":220.0661,"MEAN_ANOMALY":139.7991,"EPHEMERIS_TYPE":0,"NORAD_CAT_ID":69859,"ELEMENT_SET_NO":999,"REV_AT_EPOCH":130,"BSTAR":-0.99923501,"MEAN_MOTION_DOT":-0.01916728,"MEAN_MOTION_DDOT":0},{"OBJECT_NAME":"QIANFAN-231","OBJECT_ID":"2026-155N","EPOCH":"2026-07-14T22:40:21.333504","CLASSIFICATION_TYPE":"U","MEAN_MOTION":14.26095513,"ECCENTRICITY":0.00304766,"INCLINATION":89.0068,"RA_OF_ASC_NODE":60.9757,"ARG_OF_PERICENTER":223.5126,"MEAN_ANOMALY":136.3663,"EPHEMERIS_TYPE":0,"NORAD_CAT_ID":69860,"ELEMENT_SET_NO":999,"REV_AT_EPOCH":134,"BSTAR":0.00008473394,"MEAN_MOTION_DOT":0.00000218,"MEAN_MOTION_DDOT":0},{"OBJECT_NAME":"QIANFAN-232","OBJECT_ID":"2026-155P","EPOCH":"2026-07-14T22:37:01.422048","CLASSIFICATION_TYPE":"U","MEAN_MOTION":14.26735259,"ECCENTRICITY":0.00302741,"INCLINATION":89.0065,"RA_OF_ASC_NODE":60.9751,"ARG_OF_PERICENTER":224.881,"MEAN_ANOMALY":134.9935,"EPHEMERIS_TYPE":0,"NORAD_CAT_ID":69861,"ELEMENT_SET_NO":999,"REV_AT_EPOCH":134,"BSTAR":0.000085000702,"MEAN_MOTION_DOT":0.00000221,"MEAN_MOTION_DDOT":0},{"OBJECT_NAME":"QIANFAN-233","OBJECT_ID":"2026-155Q","EPOCH":"2026-07-14T19:14:54.433824","CLASSIFICATION_TYPE":"U","MEAN_MOTION":14.26751064,"ECCENTRICITY":0.00302262,"INCLINATION":89.0066,"RA_OF_ASC_NODE":60.9911,"ARG_OF_PERICENTER":225.174,"MEAN_ANOMALY":134.6997,"EPHEMERIS_TYPE":0,"NORAD_CAT_ID":69862,"ELEMENT_SET_NO":999,"REV_AT_EPOCH":132,"BSTAR":0.000077192996,"MEAN_MOTION_DOT":0.00000202,"MEAN_MOTION_DDOT":0},{"OBJECT_NAME":"QIANFAN-234","OBJECT_ID":"2026-155R","EPOCH":"2026-07-14T22:36:49.952448","CLASSIFICATION_TYPE":"U","MEAN_MOTION":14.26757734,"ECCENTRICITY":0.00302102,"INCLINATION":89.0068,"RA_OF_ASC_NODE":60.9753,"ARG_OF_PERICENTER":224.6783,"MEAN_ANOMALY":135.1977,"EPHEMERIS_TYPE":0,"NORAD_CAT_ID":69863,"ELEMENT_SET_NO":999,"REV_AT_EPOCH":134,"BSTAR":0.000077432771,"MEAN_MOTION_DOT":0.00000203,"MEAN_MOTION_DDOT":0},{"OBJECT_NAME":"QIANFAN-235","OBJECT_ID":"2026-155S","EPOCH":"2026-07-14T20:55:47.093376","CLASSIFICATION_TYPE":"U","MEAN_MOTION":14.2676344,"ECCENTRICITY":0.00301556,"INCLINATION":89.0067,"RA_OF_ASC_NODE":60.9833,"ARG_OF_PERICENTER":224.9343,"MEAN_ANOMALY":134.941,"EPHEMERIS_TYPE":0,"NORAD_CAT_ID":69864,"ELEMENT_SET_NO":999,"REV_AT_EPOCH":133,"BSTAR":0.000023749135,"MEAN_MOTION_DOT":7.2e-7,"MEAN_MOTION_DDOT":0},{"OBJECT_NAME":"QIANFAN-236","OBJECT_ID":"2026-155T","EPOCH":"2026-07-14T22:36:43.782624","CLASSIFICATION_TYPE":"U","MEAN_MOTION":14.26768828,"ECCENTRICITY":0.00301268,"INCLINATION":89.0067,"RA_OF_ASC_NODE":60.9752,"ARG_OF_PERICENTER":224.7522,"MEAN_ANOMALY":135.1241,"EPHEMERIS_TYPE":0,"NORAD_CAT_ID":69865,"ELEMENT_SET_NO":999,"REV_AT_EPOCH":134,"BSTAR":0.000092214998,"MEAN_MOTION_DOT":0.00000239,"MEAN_MOTION_DDOT":0},{"OBJECT_NAME":"QIANFAN-237","OBJECT_ID":"2026-155U","EPOCH":"2026-07-14T22:36:38.984832","CLASSIFICATION_TYPE":"U","MEAN_MOTION":14.26777039,"ECCENTRICITY":0.00301124,"INCLINATION":89.0067,"RA_OF_ASC_NODE":60.9752,"ARG_OF_PERICENTER":224.7461,"MEAN_ANOMALY":135.1304,"EPHEMERIS_TYPE":0,"NORAD_CAT_ID":69866,"ELEMENT_SET_NO":999,"REV_AT_EPOCH":133,"BSTAR":0.000073802855,"MEAN_MOTION_DOT":0.00000194,"MEAN_MOTION_DDOT":0},{"OBJECT_NAME":"QIANFAN-238","OBJECT_ID":"2026-155V","EPOCH":"2026-07-14T22:36:34.835040","CLASSIFICATION_TYPE":"U","MEAN_MOTION":14.26784583,"ECCENTRICITY":0.00300866,"INCLINATION":89.0067,"RA_OF_ASC_NODE":60.9752,"ARG_OF_PERICENTER":224.7816,"MEAN_ANOMALY":135.095,"EPHEMERIS_TYPE":0,"NORAD_CAT_ID":69867,"ELEMENT_SET_NO":999,"REV_AT_EPOCH":134,"BSTAR":0.000096586762,"MEAN_MOTION_DOT":0.00000249,"MEAN_MOTION_DDOT":0}]}
