QIANFAN-225             
1 69854U 26155G   26195.66104376 -.01940958  00000+0 -93627+0 0  9990
2 69854  89.0060  61.0064 0026721 229.1561 130.7315 14.22457897  1301
QIANFAN-226             
1 69855U 26155H   26195.66056751 -.01888899  00000+0 -90615+0 0  9993
2 69855  89.0063  61.0075 0027157 227.2474 132.6432 14.22636125  1307
QIANFAN-227             
1 69856U 26155J   26195.66006345 -.01668555  00000+0 -81608+0 0  9995
2 69856  89.0049  61.0060 0029282 227.9973 131.8725 14.21733202  1307
QIANFAN-228             
1 69857U 26155K   26195.73204560  .00000072  00000+0  23551-4 0  9992
2 69857  89.0070  60.9992 0030346 225.1859 134.6868 14.26683603  1314
QIANFAN-229             
1 69858U 26155L   26195.59172410  .00000257  00000+0  99869-4 0  9995
2 69858  89.0067  61.0152 0030269 225.7567 134.1142 14.26734062  1290
QIANFAN-230             
1 69859U 26155M   26195.66562701 -.01916728  00000+0 -99924+0 0  9999
2 69859  89.0057  61.0078 0034393 220.0661 139.7991 14.18156605  1309
QIANFAN-231             
1 69860U 26155N   26195.94469136  .00000218  00000+0  84734-4 0  9993
2 69860  89.0068  60.9757 0030476 223.5126 136.3663 14.26095513  1349
QIANFAN-232             
1 69861U 26155P   26195.94237757  .00000221  00000+0  85001-4 0  9998
2 69861  89.0065  60.9751 0030274 224.8810 134.9935 14.26735259  1345
QIANFAN-233             
1 69862U 26155Q   26195.80201891  .00000202  00000+0  77193-4 0  9996
2 69862  89.0066  60.9911 0030226 225.1740 134.6997 14.26751064  1323
QIANFAN-234             
1 69863U 26155R   26195.94224482  .00000203  00000+0  77433-4 0  9991
2 69863  89.0068  60.9753 0030210 224.6783 135.1977 14.26757734  1340
QIANFAN-235             
1 69864U 26155S   26195.87207284  .00000072  00000+0  23749-4 0  9990
2 69864  89.0067  60.9833 0030155 224.9343 134.9410 14.26763440  1331
QIANFAN-236             
1 69865U 26155T   26195.94217341  .00000239  00000+0  92215-4 0  9993
2 69865  89.0067  60.9752 0030126 224.7522 135.1241 14.26768828  1348
QIANFAN-237             
1 69866U 26155U   26195.94211788  .00000194  00000+0  73803-4 0  9995
2 69866  89.0067  60.9752 0030112 224.7461 135.1304 14.26777039  1339
QIANFAN-238             
1 69867U 26155V   26195.94206985  .00000249  00000+0  96587-4 0  9994
2 69867  89.0067  60.9752 0030086 224.7816 135.0950 14.26784583  1343
